{
  "norad_id": 52543,
  "name": "STARLINK-3926",
  "history": [
    {
      "epoch": "2026-03-28T21:37:53.402592Z",
      "apogee_km": 540.7810890514384,
      "perigee_km": 538.7545580124324,
      "latitude_deg": 8.49208315885831e-06,
      "longitude_deg": -107.91211458057033,
      "height_km": 540.6990153902891,
      "semi_major_axis_km": 6917.904823531935,
      "eccentricity": 0.00014647,
      "inclination_deg": 53.2188,
      "raan_deg": 42.8755,
      "arg_perigee_deg": 92.007,
      "mean_anomaly_deg": 268.109,
      "mean_motion_rev_day": 15.08832006
    },
    {
      "epoch": "2026-03-29T03:59:25.926720Z",
      "apogee_km": 540.7747496142483,
      "perigee_km": 538.7505721734706,
      "latitude_deg": 2.3018087228352022e-05,
      "longitude_deg": 155.25192279898687,
      "height_km": 540.6912453316535,
      "semi_major_axis_km": 6917.89966089386,
      "eccentricity": 0.0001463,
      "inclination_deg": 53.2188,
      "raan_deg": 41.6862,
      "arg_perigee_deg": 91.8616,
      "mean_anomaly_deg": 268.2544,
      "mean_motion_rev_day": 15.08833695
    },
    {
      "epoch": "2026-03-30T03:50:13.023744Z",
      "apogee_km": 540.7814321194164,
      "perigee_km": 538.7434189486539,
      "latitude_deg": -2.4251875439496935e-05,
      "longitude_deg": 152.11651316383944,
      "height_km": 540.7486424330148,
      "semi_major_axis_km": 6917.899425534035,
      "eccentricity": 0.0001473,
      "inclination_deg": 53.2191,
      "raan_deg": 37.2264,
      "arg_perigee_deg": 95.0941,
      "mean_anomaly_deg": 265.0219,
      "mean_motion_rev_day": 15.08833772
    },
    {
      "epoch": "2026-03-30T05:25:36.041376Z",
      "apogee_km": 540.7854035104156,
      "perigee_km": 538.7280219202548,
      "latitude_deg": -2.452079723569021e-05,
      "longitude_deg": 127.90751846747104,
      "height_km": 540.7090435244066,
      "semi_major_axis_km": 6917.893712715335,
      "eccentricity": 0.0001487,
      "inclination_deg": 53.219,
      "raan_deg": 36.9286,
      "arg_perigee_deg": 93.1556,
      "mean_anomaly_deg": 266.9606,
      "mean_motion_rev_day": 15.08835641
    },
    {
      "epoch": "2026-03-31T05:16:23.126304Z",
      "apogee_km": 540.7381659772964,
      "perigee_km": 538.7610339870225,
      "latitude_deg": 1.5895015655582553e-05,
      "longitude_deg": 124.7713251574181,
      "height_km": 540.6808088086364,
      "semi_major_axis_km": 6917.886599982159,
      "eccentricity": 0.0001429,
      "inclination_deg": 53.2187,
      "raan_deg": 32.4679,
      "arg_perigee_deg": 92.0558,
      "mean_anomaly_deg": 268.0598,
      "mean_motion_rev_day": 15.08837968
    },
    {
      "epoch": "2026-04-01T13:04:05.940480Z",
      "apogee_km": 540.6953531503586,
      "perigee_km": 538.787402293784,
      "latitude_deg": -2.2613465708473447e-06,
      "longitude_deg": 0.5895374858384451,
      "height_km": 540.679384167558,
      "semi_major_axis_km": 6917.8783777220715,
      "eccentricity": 0.0001379,
      "inclination_deg": 53.2188,
      "raan_deg": 26.5203,
      "arg_perigee_deg": 92.5339,
      "mean_anomaly_deg": 267.5811,
      "mean_motion_rev_day": 15.08840658
    },
    {
      "epoch": "2026-04-02T12:54:52.186464Z",
      "apogee_km": 540.7027322734994,
      "perigee_km": 538.7383374479014,
      "latitude_deg": -3.722949334707332e-05,
      "longitude_deg": -2.5438069654844777,
      "height_km": 540.7460877538357,
      "semi_major_axis_km": 6917.8575348607,
      "eccentricity": 0.00014198,
      "inclination_deg": 53.2191,
      "raan_deg": 22.059,
      "arg_perigee_deg": 97.5896,
      "mean_anomaly_deg": 262.5257,
      "mean_motion_rev_day": 15.08847477
    },
    {
      "epoch": "2026-04-02T22:27:11.255616Z",
      "apogee_km": 540.8060502768149,
      "perigee_km": 538.6642770549443,
      "latitude_deg": 4.93214887244937e-05,
      "longitude_deg": -147.8003347680795,
      "height_km": 540.8891463613927,
      "semi_major_axis_km": 6917.872163665879,
      "eccentricity": 0.0001548,
      "inclination_deg": 53.22,
      "raan_deg": 20.2736,
      "arg_perigee_deg": 103.9525,
      "mean_anomaly_deg": 256.164,
      "mean_motion_rev_day": 15.08842691
    }
  ]
}